NORAD_CAT_ID,OBJECT_NAME,OBJECT_TYPE,EPOCH,MEAN_MOTION,ECCENTRICITY,INCLINATION,RA_OF_ASC_NODE,ARG_OF_PERICENTER,MEAN_ANOMALY,BSTAR,MEAN_MOTION_DOT,MEAN_MOTION_DDOT,TLE_LINE0,TLE_LINE1,TLE_LINE2,SEMIMAJOR_AXIS,PERIOD,APOGEE,PERIGEE,DECAYED
56816.0,STARLINK-6067,PAYLOAD,2024-01-07 11:37:11,14.98328388,0.0002866,70.0004,161.691,264.2602,95.823,2.5538e-05,2.12e-06,0.0,0 STARLINK-6067,1 56816U 23078BB  24007.48415911  .00000212  00000-0  25538-4 0  9994,2 56816  70.0004 161.6910 0002866 264.2602  95.8230 14.98328388 34779,6950.198,96.107,574.055,570.071,0.0
56816.0,STARLINK-6067,PAYLOAD,2024-01-07 14:49:27,14.98328012,0.0002874,70.0004,161.3545,264.2834,95.7997,1.9339e-05,1.38e-06,0.0,0 STARLINK-6067,1 56816U 23078BB  24007.61767953  .00000138  00000-0  19339-4 0  9994,2 56816  70.0004 161.3545 0002874 264.2834  95.7997 14.98328012 34533,6950.199,96.107,574.062,570.067,0.0
56816.0,STARLINK-6067,PAYLOAD,2024-01-07 19:37:51,14.98328225,0.0002968,70.0002,160.849,268.5138,91.5681,9.9338e-06,2.6e-07,0.0,0 STARLINK-6067,1 56816U 23078BB  24007.81795992  .00000026  00000-0  99338-5 0  9994,2 56816  70.0002 160.8490 0002968 268.5138  91.5681 14.98328225 34565,6950.198,96.107,574.126,570.001,0.0
56816.0,STARLINK-6067,PAYLOAD,2024-01-08 11:39:12,14.9833228,0.0002668,70.0002,159.1649,255.5256,104.5607,-3.3807e-05,-4.96e-06,0.0,0 STARLINK-6067,1 56816U 23078BB  24008.48555684 -.00000496  00000-0 -33807-4 0  9991,2 56816  70.0002 159.1649 0002668 255.5256 104.5607 14.98332280 34925,6950.186,96.107,573.905,570.197,0.0
56816.0,STARLINK-6067,PAYLOAD,2024-01-08 14:51:28,14.98333217,0.0003113,70.0001,158.8302,269.0614,91.0188,-5.7207e-05,-7.76e-06,0.0,0 STARLINK-6067,1 56816U 23078BB  24008.61907707 -.00000776  00000-0 -57207-4 0  9994,2 56816  70.0001 158.8302 0003113 269.0614  91.0188 14.98333217 34688,6950.183,96.107,574.212,569.884,0.0
56816.0,STARLINK-6067,PAYLOAD,2024-01-08 19:39:52,14.98334345,0.0002671,70.0004,158.3239,256.0016,104.0846,-9.4238e-06,-2.05e-06,0.0,0 STARLINK-6067,1 56816U 23078BB  24008.81935422 -.00000205  00000-0 -94238-5 0  9994,2 56816  70.0004 158.3239 0002671 256.0016 104.0846 14.98334345 34718,6950.179,96.107,573.901,570.188,0.0
56816.0,STARLINK-6067,PAYLOAD,2024-01-09 11:41:13,14.98329014,0.0003054,70.0005,156.6419,269.9097,90.1712,7.5445e-06,-3e-08,0.0,0 STARLINK-6067,1 56816U 23078BB  24009.48695615 -.00000003  00000-0  75445-5 0  9999,2 56816  70.0005 156.6419 0003054 269.9097  90.1712 14.98329014 35072,6950.196,96.107,574.184,569.938,0.0
56816.0,STARLINK-6067,PAYLOAD,2024-01-09 14:53:29,14.98328391,0.0002947,70.0006,156.3051,267.4653,92.6169,1.8471e-05,1.27e-06,0.0,0 STARLINK-6067,1 56816U 23078BB  24009.62047622  .00000127  00000-0  18471-4 0  9995,2 56816  70.0006 156.3051 0002947 267.4653  92.6169 14.98328391 34836,6950.198,96.107,574.111,570.015,0.0
56816.0,STARLINK-6067,PAYLOAD,2024-01-09 19:41:52,14.98333105,0.0002995,70.0005,155.8003,269.1711,90.9105,5.6433e-05,5.8e-06,0.0,0 STARLINK-6067,1 56816U 23078BB  24009.82075197  .00000580  00000-0  56433-4 0  9998,2 56816  70.0005 155.8003 0002995 269.1711  90.9105 14.98333105 34866,6950.183,96.107,574.13,569.967,0.0
56816.0,STARLINK-6067,PAYLOAD,2024-01-10 11:43:14,14.9832814,0.0002786,70.001,154.1173,262.949,97.1352,-1.9436e-05,-3.25e-06,0.0,0 STARLINK-6067,1 56816U 23078BB  24010.48835655 -.00000325  00000-0 -19436-4 0  9996,2 56816  70.0010 154.1173 0002786 262.9490  97.1352 14.98328140 35222,6950.199,96.107,574.0,570.127,0.0
56816.0,STARLINK-6067,PAYLOAD,2024-01-11 11:45:14,14.98331722,0.0002774,70.0008,151.5923,265.6966,94.3876,3.7463e-06,-4.8e-07,0.0,0 STARLINK-6067,1 56816U 23078BB  24011.48975309 -.00000048  00000-0  37463-5 0  9990,2 56816  70.0008 151.5923 0002774 265.6966  94.3876 14.98331722 35374,6950.188,96.107,573.981,570.125,0.0
56816.0,STARLINK-6067,PAYLOAD,2024-01-11 14:57:30,14.98332318,0.0002753,70.0009,151.2558,266.2672,93.8172,1.2551e-05,5.7e-07,0.0,0 STARLINK-6067,1 56816U 23078BB  24011.62327239  .00000057  00000-0  12551-4 0  9998,2 56816  70.0009 151.2558 0002753 266.2672  93.8172 14.98332318 35133,6950.186,96.107,573.964,570.137,0.0
56816.0,STARLINK-6067,PAYLOAD,2024-01-11 19:45:54,14.98335137,0.0002733,70.0008,150.7506,263.9765,96.1082,4.403e-05,4.32e-06,0.0,0 STARLINK-6067,1 56816U 23078BB  24011.82354906  .00000432  00000-0  44030-4 0  9995,2 56816  70.0008 150.7506 0002733 263.9765  96.1082 14.98335137 35165,6950.177,96.107,573.941,570.143,0.0
56816.0,STARLINK-6067,PAYLOAD,2024-01-12 11:47:16,14.98319805,0.0002698,70.0007,149.067,253.8889,106.1973,-7.5836e-05,-9.97e-06,0.0,0 STARLINK-6067,1 56816U 23078BB  24012.49116227 -.00000997  00000-0 -75836-4 0  9997,2 56816  70.0007 149.0670 0002698 253.8889 106.1973 14.98319805 35527,6950.224,96.108,573.965,570.214,0.0
56816.0,STARLINK-6067,PAYLOAD,2024-01-12 14:59:32,14.98319481,0.0002698,70.0008,148.7304,254.1176,105.9686,-7.6969e-05,-1.011e-05,0.0,0 STARLINK-6067,1 56816U 23078BB  24012.62468330 -.00001011  00000-0 -76969-4 0  9993,2 56816  70.0008 148.7304 0002698 254.1176 105.9686 14.98319481 35282,6950.225,96.108,573.966,570.215,0.0
56816.0,STARLINK-6067,PAYLOAD,2024-01-12 18:11:48,14.98319833,0.0002929,70.0008,148.3944,266.8095,93.2729,-9.1267e-05,-1.181e-05,0.0,0 STARLINK-6067,1 56816U 23078BB  24012.75820475 -.00001181  00000-0 -91267-4 0  9995,2 56816  70.0008 148.3944 0002929 266.8095  93.2729 14.98319833 35306,6950.224,96.108,574.125,570.054,0.0
56816.0,STARLINK-6067,PAYLOAD,2024-01-13 11:49:16,14.98334516,0.0003292,69.9995,146.5419,269.2248,90.8534,-2.7857e-05,-4.25e-06,0.0,0 STARLINK-6067,1 56816U 23078BB  24013.49255441 -.00000425  00000-0 -27857-4 0  9996,2 56816  69.9995 146.5419 0003292 269.2248  90.8534 14.98334516 35678,6950.179,96.107,574.332,569.756,0.0
56816.0,STARLINK-6067,PAYLOAD,2024-01-13 13:25:24,14.98334481,0.0003258,69.9996,146.3734,268.399,91.6795,-1.9927e-05,-3.31e-06,0.0,0 STARLINK-6067,1 56816U 23078BB  24013.55931407 -.00000331  00000-0 -19927-4 0  9991,2 56816  69.9996 146.3734 0003258 268.3990  91.6795 14.98334481 35425,6950.179,96.107,574.308,569.78,0.0
56816.0,STARLINK-6067,PAYLOAD,2024-01-13 18:13:48,14.98338535,0.0002917,70.0,145.8694,264.8814,95.2012,8.3937e-05,9.09e-06,0.0,0 STARLINK-6067,1 56816U 23078BB  24013.75958798  .00000909  00000-0  83937-4 0  9996,2 56816  70.0000 145.8694 0002917 264.8814  95.2012 14.98338535 35718,6950.166,96.106,574.059,570.004,0.0
56816.0,STARLINK-6067,PAYLOAD,2024-01-14 11:51:17,14.98326208,0.0002884,70.0005,144.0193,265.7193,94.3636,0.00010199,1.124e-05,0.0,0 STARLINK-6067,1 56816U 23078BB  24014.49395439  .00001124  00000-0  10199-3 0  9994,2 56816  70.0005 144.0193 0002884 265.7193  94.3636 14.98326208 35829,6950.205,96.107,574.074,570.065,0.0
56816.0,STARLINK-6067,PAYLOAD,2024-01-14 13:27:25,14.9832625,0.0002886,70.0005,143.851,265.7082,94.3747,9.9943e-05,1.1e-05,0.0,0 STARLINK-6067,1 56816U 23078BB  24014.56071456  .00001100  00000-0  99943-4 0  9991,2 56816  70.0005 143.8510 0002886 265.7082  94.3747 14.98326250 35570,6950.204,96.107,574.075,570.064,0.0
56816.0,STARLINK-6067,PAYLOAD,2024-01-14 18:15:49,14.98329525,0.0002843,70.0007,143.3464,264.9349,95.1486,0.00012991,1.457e-05,0.0,0 STARLINK-6067,1 56816U 23078BB  24014.76099173  .00001457  00000-0  12991-3 0  9991,2 56816  70.0007 143.3464 0002843 264.9349  95.1486 14.98329525 35606,6950.194,96.107,574.035,570.083,0.0
56816.0,STARLINK-6067,PAYLOAD,2024-01-15 11:53:18,14.98332664,0.0002643,70.0013,141.4954,261.2796,98.8064,-4.596e-05,-6.41e-06,0.0,0 STARLINK-6067,1 56816U 23078BB  24015.49535414 -.00000641  00000-0 -45960-4 0  9994,2 56816  70.0013 141.4954 0002643 261.2796  98.8064 14.98332664 35970,6950.185,96.107,573.887,570.213,0.0
56816.0,STARLINK-6067,PAYLOAD,2024-01-15 13:29:26,14.98332468,0.0002639,70.0013,141.3271,261.0589,99.0271,-4.6512e-05,-6.48e-06,0.0,0 STARLINK-6067,1 56816U 23078BB  24015.56211412 -.00000648  00000-0 -46512-4 0  9992,2 56816  70.0013 141.3271 0002639 261.0589  99.0271 14.98332468 35722,6950.185,96.107,573.884,570.216,0.0
56816.0,STARLINK-6067,PAYLOAD,2024-01-15 18:17:50,14.98334791,0.0002611,70.0014,140.8224,260.8487,99.2377,-1.7143e-05,-2.97e-06,0.0,0 STARLINK-6067,1 56816U 23078BB  24015.76239127 -.00000297  00000-0 -17143-4 0  9995,2 56816  70.0014 140.8224 0002611 260.8487  99.2377 14.98334791 35752,6950.178,96.107,573.858,570.228,0.0
56816.0,STARLINK-6067,PAYLOAD,2024-01-16 11:55:19,14.98325078,0.0002396,70.002,138.971,257.1742,102.9149,-5.1806e-05,-7.11e-06,0.0,0 STARLINK-6067,1 56816U 23078BB  24016.49675844 -.00000711  00000-0 -51806-4 0  9991,2 56816  70.0020 138.9710 0002396 257.1742 102.9149 14.98325078 36129,6950.208,96.107,573.738,570.408,0.0
56816.0,STARLINK-6067,PAYLOAD,2024-01-16 13:31:28,14.98323679,0.0002531,70.0019,138.8024,262.2094,97.8777,-3.8286e-05,-5.5e-06,0.0,0 STARLINK-6067,1 56816U 23078BB  24016.56351914 -.00000550  00000-0 -38286-4 0  9996,2 56816  70.0019 138.8024 0002531 262.2094  97.8777 14.98323679 35877,6950.212,96.107,573.837,570.318,0.0
56816.0,STARLINK-6067,PAYLOAD,2024-01-16 18:19:52,14.9832447,0.0002779,70.0015,138.2959,274.3234,85.7608,-1.4544e-05,-2.66e-06,0.0,0 STARLINK-6067,1 56816U 23078BB  24016.76379946 -.00000266  00000-0 -14544-4 0  9998,2 56816  70.0015 138.2959 0002779 274.3234  85.7608 14.98324470 35901,6950.21,96.107,574.006,570.144,0.0
56816.0,STARLINK-6067,PAYLOAD,2024-01-17 11:57:20,14.98325803,0.000291,70.0006,136.4437,270.6517,89.4308,-1.3178e-05,-2.5e-06,0.0,0 STARLINK-6067,1 56816U 23078BB  24017.49815894 -.00000250  00000-0 -13178-4 0  9991,2 56816  70.0006 136.4437 0002910 270.6517  89.4308 14.98325803 36272,6950.206,96.107,574.093,570.048,0.0
56816.0,STARLINK-6067,PAYLOAD,2024-01-17 15:09:36,14.98327231,0.0002847,70.0008,136.1069,271.928,88.1553,1.2794e-05,6e-07,0.0,0 STARLINK-6067,1 56816U 23078BB  24017.63167785  .00000060  00000-0  12794-4 0  9996,2 56816  70.0008 136.1069 0002847 271.9280  88.1553 14.98327231 36031,6950.201,96.107,574.045,570.088,0.0
